{
  "version": 0.6,
  "generator": "Overpass API 0.7.62.7 375dc00a",
  "osm3s": {
    "timestamp_osm_base": "2025-07-15T18:59:06Z",
    "timestamp_areas_base": "2025-07-15T16:46:45Z",
    "copyright": "The data included in this document is from www.openstreetmap.org. The data is made available under ODbL."
  },
  "elements": [

{
  "type": "way",
  "id": 133374448,
  "tags": {
    "IBGE:GEOCODIGO": "5300108",
    "alt_name": "SHVP - Rua 1",
    "highway": "tertiary",
    "is_in:suburb": "Setor Habitacional Vicente Pires",
    "lanes": "2",
    "name": "Rua 1",
    "oneway": "no",
    "postal_code": "72005-100",
    "surface": "asphalt"
  }
},
{
  "type": "way",
  "id": 158718197,
  "tags": {
    "IBGE:GEOCODIGO": "5300108",
    "alt_name": "Q 10 Cj 12",
    "highway": "residential",
    "is_in:suburb": "Setor Habitacional Vicente Pires - Trecho 3",
    "lanes": "1",
    "name": "Quadra 10 Conjunto 12",
    "oneway": "no",
    "postal_code": "72002-039",
    "surface": "asphalt"
  }
},
{
  "type": "way",
  "id": 158718208,
  "tags": {
    "IBGE:GEOCODIGO": "5300108",
    "highway": "residential",
    "is_in:suburb": "Setor Habitacional Vicente Pires - Trecho 3",
    "lanes": "1",
    "name": "Rua 1 Chácara 106A conjunto A",
    "oneway": "no",
    "postal_code": "72002-495",
    "surface": "asphalt"
  }
},
{
  "type": "relation",
  "id": 421151,
  "tags": {
    "IBGE:GEOCODIGO": "53",
    "ISO3166-2": "BR-DF",
    "admin_level": "4",
    "alt_name": "Brasília",
    "boundary": "administrative",
    "flag": "https://upload.wikimedia.org/wikipedia/commons/3/3c/Bandeira_do_Distrito_Federal_%28Brasil%29.svg",
    "is_in:country": "Brazil",
    "name": "Distrito Federal",
    "name:ar": "القطاع الفدرالي",
    "name:be": "Федэральная акруга",
    "name:bg": "Федерален окръг",
    "name:br": "Distrig kevreadel",
    "name:ca": "Districte Federal",
    "name:cs": "Federální distrikt",
    "name:de": "Bundesdistrikt",
    "name:en": "Federal District",
    "name:eo": "Federacia Distrikto",
    "name:es": "Distrito Federal",
    "name:et": "Liiduringkond",
    "name:eu": "Barruti Federala",
    "name:fa": "منطقه فدرال",
    "name:fr": "District fédéral",
    "name:he": "המחוז הפדרלי",
    "name:hr": "Federalni distrikt",
    "name:hy": "Դաշնային շրջան",
    "name:ia": "Districto Federal",
    "name:id": "Distrik Federal",
    "name:it": "Distretto Federale",
    "name:ja": "連邦直轄区",
    "name:ka": "ფედერალური ოლქი",
    "name:ko": "연방구",
    "name:kw": "Ranndir an Kesunyans",
    "name:la": "Pagus Foederalis",
    "name:lt": "Federalinė teritorija",
    "name:lv": "Federālais distrikts",
    "name:mk": "Федерален округ",
    "name:mr": "शासकीय जिल्हा",
    "name:ms": "Wilayah Persekutuan",
    "name:nl": "Federaal District",
    "name:oc": "Districte federal",
    "name:os": "Федералон зылд",
    "name:pl": "Dystrykt Federalny",
    "name:pt": "Distrito Federal",
    "name:qu": "Tantasqap",
    "name:ro": "Districtul Federal",
    "name:ru": "Федеральный округ",
    "name:sh": "Federalni distrikt",
    "name:sq": "Distrikti Federal",
    "name:sr": "Савезни дистрикт",
    "name:sv": "Federala distrikt",
    "name:tg": "Савезни дистрикт",
    "name:th": "เฟเดอรัลดิสตริกต์",
    "name:tr": "Federal Bölge",
    "name:uk": "Федеральний округ",
    "name:uz": "Federal okrugi",
    "name:vi": "Quận liên bang",
    "name:zh": "联邦区",
    "note": "O censo e muitas pessoas chamam o DF de Brasília.",
    "ref": "DF",
    "short_name": "DF",
    "source": "IBGE",
    "timezone": "America/Sao_Paulo",
    "type": "boundary",
    "website": "https://www.df.gov.br/",
    "wikidata": "Q119158",
    "wikipedia": "pt:Distrito Federal (Brasil)"
  }
},
{
  "type": "relation",
  "id": 2758138,
  "tags": {
    "IBGE:GEOCODIGO": "53001080506",
    "admin_level": "8",
    "alt_name": "RA I",
    "alt_name:ru": "Бразилия",
    "boundary": "administrative",
    "flag": "http://upload.wikimedia.org/wikipedia/commons/3/3c/Bandeira_do_Distrito_Federal_%28Brasil%29.svg",
    "loc_name": "RA 1",
    "name": "Plano Piloto",
    "name:am": "ብራዚሊያ",
    "name:ar": "برازيليا",
    "name:az": "Brazilia",
    "name:be": "Бразілія",
    "name:bg": "Бразилия",
    "name:ce": "Бразилиа",
    "name:co": "Brasilia",
    "name:cv": "Бразилиа",
    "name:dv": "ބްރަސީލިއާ",
    "name:el": "Μπραζίλια",
    "name:eo": "Braziljo",
    "name:es": "Brasilia",
    "name:fa": "برازیلیا",
    "name:fr": "Brasilia",
    "name:gl": "Brasilia",
    "name:gn": "Brasilia",
    "name:he": "בראזיליא",
    "name:hu": "Brazíliaváros",
    "name:hy": "Բրազիլիա",
    "name:ie": "Brasilia",
    "name:is": "Brasilía",
    "name:it": "Brasilia",
    "name:ja": "ブラジリア",
    "name:ka": "ბრაზილია",
    "name:kk": "Бразилиа",
    "name:ko": "브라질리아",
    "name:la": "Brasiliopolis",
    "name:lt": "Brazilija",
    "name:lv": "Brazilja",
    "name:mk": "Бразилија",
    "name:mn": "Бразилиа",
    "name:mr": "ब्राझिलिया",
    "name:nl": "Brasilia",
    "name:or": "ବ୍ରାସିଲିଆ",
    "name:os": "Бразилиа",
    "name:pa": "ਬ੍ਰਾਜ਼ੀਲੀਆ",
    "name:pt": "Plano Piloto",
    "name:qu": "Brasilia",
    "name:ro": "Brazilia",
    "name:ru": "Бразилиа",
    "name:sh": "Brazilija",
    "name:sk": "Brazília",
    "name:sl": "Brasilia",
    "name:sr": "Бразилија",
    "name:ta": "பிரசிலியா",
    "name:tg": "Бразилиа",
    "name:th": "บราซีเลีย",
    "name:tt": "Бразилиа",
    "name:uk": "Бразилія",
    "name:ur": "براسیلیا",
    "name:yo": "Bràsílíà",
    "name:zh": "巴西利亚",
    "name:zh-Hans": "巴西利亚",
    "name:zh-Hant": "巴西利亞",
    "population": "224848",
    "population:date": "2021",
    "reg_name": "Região Administrativa Um",
    "source:population": "CODEPLAN - PDAD 2021",
    "state_capital": "yes",
    "type": "boundary",
    "website": "https://www.brasilia.df.gov.br/",
    "wikidata": "Q3643852",
    "wikipedia": "pt:Plano Piloto (região administrativa)"
  }
},
{
  "type": "relation",
  "id": 3359464,
  "tags": {
    "IBGE:GEOCODIGO": "53001080509",
    "admin_level": "8",
    "alt_name": "RA IV",
    "boundary": "administrative",
    "loc_name": "RA 4",
    "name": "Brazlândia",
    "population": "55879",
    "population:date": "2021",
    "reg_name": "Região Administrativa Quatro",
    "source:population": "CODEPLAN - PDAD 2021",
    "type": "boundary",
    "wikidata": "Q3643980",
    "wikipedia": "pt:Brazlândia"
  }
},
{
  "type": "relation",
  "id": 3359465,
  "tags": {
    "IBGE:GEOCODIGO": "53001080519",
    "admin_level": "8",
    "alt_name": "RA XIX",
    "boundary": "administrative",
    "loc_name": "RA 19",
    "name": "Candangolândia",
    "population": "16339",
    "population:date": "2021",
    "reg_name": "Região Administrativa Dezenove",
    "source:population": "CODEPLAN - PDAD 2021",
    "type": "boundary",
    "wikidata": "Q3655167",
    "wikipedia": "pt:Candangolândia"
  }
},
{
  "type": "relation",
  "id": 3359466,
  "tags": {
    "IBGE:GEOCODIGO": "53001080515",
    "admin_level": "8",
    "alt_name": "RA IX",
    "boundary": "administrative",
    "flag": "http://upload.wikimedia.org/wikipedia/commons/0/08/Bandeira_de_Ceil%C3%A2ndia.png",
    "loc_name": "RA 9",
    "name": "Ceilândia",
    "name:pt": "Ceilândia",
    "population": "350347",
    "population:date": "2021",
    "reg_name": "Região Administrativa Nove",
    "source:population": "CODEPLAN - PDAD 2021",
    "type": "boundary",
    "website": "https://www.ceilandia.df.gov.br/",
    "wikidata": "Q1002818",
    "wikipedia": "pt:Ceilândia"
  }
},
{
  "type": "relation",
  "id": 3359467,
  "tags": {
    "IBGE:GEOCODIGO": "53001080517",
    "admin_level": "8",
    "alt_name": "RA XI",
    "boundary": "administrative",
    "loc_name": "RA 11",
    "name": "Cruzeiro",
    "population": "30860",
    "population:date": "2021",
    "reg_name": "Região Administrativa Onze",
    "source:population": "CODEPLAN - PDAD 2021",
    "type": "boundary",
    "wikidata": "Q3698803",
    "wikipedia": "pt:Cruzeiro (Distrito Federal)"
  }
},
{
  "type": "relation",
  "id": 3359468,
  "tags": {
    "IBGE:GEOCODIGO": "53001080539",
    "admin_level": "8",
    "alt_name": "RA XXXI",
    "boundary": "administrative",
    "loc_name": "RA 31",
    "name": "Fercal",
    "population": "9388",
    "population:date": "2021",
    "reg_name": "Região Administrativa Trinta e Um",
    "source:population": "CODEPLAN - PDAD 2021",
    "type": "boundary",
    "wikidata": "Q10281128",
    "wikipedia": "pt:Fercal"
  }
},
{
  "type": "relation",
  "id": 3359469,
  "tags": {
    "IBGE:GEOCODIGO": "53001080507",
    "admin_level": "8",
    "alt_name": "RA II",
    "boundary": "administrative",
    "loc_name": "RA 2",
    "name": "Gama",
    "population": "137331",
    "population:date": "2021",
    "reg_name": "Região Administrativa Dois",
    "source:population": "CODEPLAN - PDAD 2021",
    "type": "boundary",
    "wikidata": "Q93572",
    "wikipedia": "pt:Gama (Distrito Federal)"
  }
},
{
  "type": "relation",
  "id": 3359470,
  "tags": {
    "IBGE:GEOCODIGO": "53001080516",
    "admin_level": "8",
    "alt_name": "RA X",
    "boundary": "administrative",
    "loc_name": "RA 10",
    "name": "Guará",
    "population": "142083",
    "population:date": "2021",
    "reg_name": "Região Administrativa Dez",
    "source:population": "CODEPLAN - PDAD 2021",
    "type": "boundary",
    "wikidata": "Q3778442",
    "wikipedia": "pt:Guará (Distrito Federal)"
  }
},
{
  "type": "relation",
  "id": 3359471,
  "tags": {
    "IBGE:GEOCODIGO": "53001080538",
    "admin_level": "8",
    "alt_name": "RA XXVIII",
    "boundary": "administrative",
    "loc_name": "RA 28",
    "name": "Itapoã",
    "population": "65373",
    "population:date": "2021",
    "reg_name": "Região Administrativa Vinte e Oito",
    "source:population": "CODEPLAN - PDAD 2021",
    "type": "boundary",
    "wikidata": "Q3804504",
    "wikipedia": "pt:Itapoã (Distrito Federal)"
  }
},
{
  "type": "relation",
  "id": 3359472,
  "tags": {
    "IBGE:GEOCODIGO": "53001080540",
    "admin_level": "8",
    "alt_name": "RA XXVII",
    "boundary": "administrative",
    "loc_name": "RA 27",
    "name": "Jardim Botânico",
    "population": "53045",
    "population:date": "2021",
    "reg_name": "Região Administrativa Vinte e Sete",
    "source:population": "CODEPLAN - PDAD 2021",
    "type": "boundary",
    "wikidata": "Q3807308",
    "wikipedia": "pt:Jardim Botânico (Distrito Federal)"
  }
},
{
  "type": "relation",
  "id": 3359473,
  "tags": {
    "IBGE:GEOCODIGO": "53001080521",
    "admin_level": "8",
    "alt_name": "RA XVIII",
    "boundary": "administrative",
    "loc_name": "RA 18",
    "name": "Lago Norte",
    "population": "37539",
    "population:date": "2021",
    "reg_name": "Região Administrativa Dezoito",
    "source:population": "CODEPLAN - PDAD 2021",
    "type": "boundary",
    "wikidata": "Q3825755",
    "wikipedia": "pt:Lago Norte"
  }
},
{
  "type": "relation",
  "id": 3359474,
  "tags": {
    "IBGE:GEOCODIGO": "53001080523",
    "admin_level": "8",
    "alt_name": "RA XVI",
    "boundary": "administrative",
    "loc_name": "RA 16",
    "name": "Lago Sul",
    "population": "30446",
    "population:date": "2021",
    "reg_name": "Região Administrativa Dezesseis",
    "source:population": "CODEPLAN - PDAD 2021",
    "type": "boundary",
    "wikidata": "Q1452004",
    "wikipedia": "pt:Lago Sul"
  }
},
{
  "type": "relation",
  "id": 3359475,
  "tags": {
    "IBGE:GEOCODIGO": "53001080514",
    "admin_level": "8",
    "alt_name": "RA VIII",
    "boundary": "administrative",
    "loc_name": "RA 8",
    "name": "Núcleo Bandeirante",
    "old_name": "Cidade Livre",
    "population": "24093",
    "population:date": "2021",
    "reg_name": "Região Administrativa Oito",
    "source:population": "CODEPLAN - PDAD 2021",
    "type": "boundary",
    "wikidata": "Q3880035",
    "wikipedia": "pt:Núcleo Bandeirante"
  }
},
{
  "type": "relation",
  "id": 3359476,
  "tags": {
    "IBGE:GEOCODIGO": "53001080512",
    "admin_level": "8",
    "alt_name": "RA VII",
    "boundary": "administrative",
    "loc_name": "RA 7",
    "name": "Paranoá",
    "population": "69858",
    "population:date": "2021",
    "reg_name": "Região Administrativa Sete",
    "source:population": "CODEPLAN - PDAD 2021",
    "type": "boundary",
    "wikidata": "Q3895255",
    "wikipedia": "pt:Paranoá"
  }
},
{
  "type": "relation",
  "id": 3359477,
  "tags": {
    "IBGE:GEOCODIGO": "53001080542",
    "admin_level": "8",
    "alt_name": "RA XXIV",
    "boundary": "administrative",
    "loc_name": "RA 24",
    "name": "Park Way",
    "population": "23081",
    "population:date": "2021",
    "reg_name": "Região Administrativa Vinte e Quatro",
    "source:population": "CODEPLAN - PDAD 2021",
    "type": "boundary",
    "wikidata": "Q3896114",
    "wikipedia": "pt:Park Way"
  }
},
{
  "type": "relation",
  "id": 3359478,
  "tags": {
    "IBGE:GEOCODIGO": "53001080511",
    "admin_level": "8",
    "alt_name": "RA VI",
    "boundary": "administrative",
    "loc_name": "RA 6",
    "name": "Planaltina",
    "population": "186498",
    "population:date": "2021",
    "reg_name": "Região Administrativa Seis",
    "source:population": "CODEPLAN - PDAD 2021",
    "type": "boundary",
    "wikidata": "Q2577688",
    "wikipedia": "pt:Planaltina (Distrito Federal)"
  }
},
{
  "type": "relation",
  "id": 3359479,
  "tags": {
    "IBGE:GEOCODIGO": "53001080520",
    "admin_level": "8",
    "alt_name": "RA XV",
    "boundary": "administrative",
    "loc_name": "RA 15",
    "name": "Recanto das Emas",
    "population": "133564",
    "population:date": "2021",
    "reg_name": "Região Administrativa Quinze",
    "source:population": "CODEPLAN - PDAD 2021",
    "type": "boundary",
    "wikidata": "Q3421820",
    "wikipedia": "pt:Recanto das Emas"
  }
},
{
  "type": "relation",
  "id": 3359480,
  "tags": {
    "IBGE:GEOCODIGO": "53001080541",
    "admin_level": "8",
    "alt_name": "RA XXI",
    "boundary": "administrative",
    "loc_name": "RA 21",
    "name": "Riacho Fundo II",
    "official_name": "Riacho Fundo Dois",
    "population": "72988",
    "population:date": "2021",
    "reg_name": "Região Administrativa Vinte e Um",
    "short_name": "Riacho Fundo 2",
    "source:population": "CODEPLAN - PDAD 2021",
    "type": "boundary",
    "wikidata": "Q3934199",
    "wikipedia": "pt:Riacho Fundo II"
  }
},
{
  "type": "relation",
  "id": 3359481,
  "tags": {
    "IBGE:GEOCODIGO": "53001080513",
    "admin_level": "8",
    "alt_name": "RA XVII",
    "boundary": "administrative",
    "loc_name": "RA 17",
    "name": "Riacho Fundo",
    "population": "44464",
    "population:date": "2021",
    "reg_name": "Região Administrativa Dezessete",
    "source:population": "CODEPLAN - PDAD 2021",
    "type": "boundary",
    "wikidata": "Q2041340",
    "wikipedia": "pt:Riacho Fundo"
  }
},
{
  "type": "relation",
  "id": 3359482,
  "tags": {
    "IBGE:GEOCODIGO": "53001080518",
    "admin_level": "8",
    "alt_name": "RA XII",
    "boundary": "administrative",
    "loc_name": "RA 12",
    "name": "Samambaia",
    "population": "247629",
    "population:date": "2021",
    "reg_name": "Região Administrativa Doze",
    "source:population": "CODEPLAN - PDAD 2021",
    "type": "boundary",
    "wikidata": "Q778250",
    "wikipedia": "pt:Samambaia (Distrito Federal)"
  }
},
{
  "type": "relation",
  "id": 3359483,
  "tags": {
    "IBGE:GEOCODIGO": "53001080525",
    "admin_level": "8",
    "alt_name": "RA XIII",
    "boundary": "administrative",
    "loc_name": "RA 13",
    "name": "Santa Maria",
    "population": "130970",
    "population:date": "2021",
    "reg_name": "Região Administrativa Treze",
    "source:population": "CODEPLAN - PDAD 2021",
    "type": "boundary",
    "wikidata": "Q3949105",
    "wikipedia": "pt:Santa Maria (Distrito Federal)"
  }
},
{
  "type": "relation",
  "id": 3359484,
  "tags": {
    "IBGE:GEOCODIGO": "53001080534",
    "admin_level": "8",
    "alt_name": "RA XXV",
    "boundary": "administrative",
    "loc_name": "RA 25",
    "name": "SCIA",
    "official_name": "Setor Complementar de Indústria e Abastecimento",
    "population": "37527",
    "population:date": "2021",
    "reg_name": "Região Administrativa Vinte e Cinco",
    "source:population": "CODEPLAN - PDAD 2021",
    "type": "boundary",
    "wikidata": "Q3958293",
    "wikipedia": "pt:Setor Complementar de Indústria e Abastecimento"
  }
},
{
  "type": "relation",
  "id": 3359485,
  "tags": {
    "IBGE:GEOCODIGO": "53001080533",
    "admin_level": "8",
    "alt_name": "RA XXIX",
    "boundary": "administrative",
    "loc_name": "RA 29",
    "name": "SIA",
    "official_name": "Setor de Indústria e Abastecimento",
    "population": "1737",
    "population:date": "2021",
    "reg_name": "Região Administrativa Vinte e Nove",
    "source:population": "CODEPLAN - PDAD 2021",
    "type": "boundary",
    "wikidata": "Q3958292",
    "wikipedia": "pt:Setor de Indústria e Abastecimento"
  }
},
{
  "type": "relation",
  "id": 3359486,
  "tags": {
    "IBGE:GEOCODIGO": "53001080544",
    "admin_level": "8",
    "alt_name": "RA XXVI",
    "boundary": "administrative",
    "loc_name": "RA 26",
    "name": "Sobradinho II",
    "official_name": "Sobradinho Dois",
    "population": "78837",
    "population:date": "2021",
    "reg_name": "Região Administrativa Vinte e Seis",
    "short_name": "Sobradinho 2",
    "source:population": "CODEPLAN - PDAD 2021",
    "type": "boundary",
    "wikidata": "Q747028",
    "wikipedia": "pt:Sobradinho II"
  }
},
{
  "type": "relation",
  "id": 3359487,
  "tags": {
    "IBGE:GEOCODIGO": "53001080510",
    "admin_level": "8",
    "alt_name": "RA V",
    "boundary": "administrative",
    "loc_name": "RA 5",
    "name": "Sobradinho",
    "population": "73438",
    "population:date": "2021",
    "reg_name": "Região Administrativa Cinco",
    "source:population": "CODEPLAN - PDAD 2021",
    "type": "boundary",
    "wikidata": "Q2572868",
    "wikipedia": "pt:Sobradinho (Distrito Federal)"
  }
},
{
  "type": "relation",
  "id": 3359488,
  "tags": {
    "IBGE:GEOCODIGO": "54001080535",
    "admin_level": "8",
    "alt_name": "RA XXII",
    "boundary": "administrative",
    "loc_name": "RA 22",
    "name": "Sudoeste e Octogonal",
    "official_name": "Sudoeste/Octogonal",
    "population": "55366",
    "population:date": "2021",
    "reg_name": "Região Administrativa Vinte e Dois",
    "source:population": "CODEPLAN - PDAD 2021",
    "type": "boundary",
    "wikidata": "Q3976670",
    "wikipedia": "pt:Sudoeste/Octogonal"
  }
},
{
  "type": "relation",
  "id": 3359489,
  "tags": {
    "IBGE:GEOCODIGO": "53001080530",
    "admin_level": "8",
    "alt_name": "RA XIV",
    "boundary": "administrative",
    "loc_name": "RA 14",
    "name": "São Sebastião",
    "population": "118972",
    "population:date": "2021",
    "reg_name": "Região Administrativa Quatorze",
    "source:population": "CODEPLAN - PDAD 2021",
    "type": "boundary",
    "wikidata": "Q3979258",
    "wikipedia": "pt:São Sebastião (Distrito Federal)"
  }
},
{
  "type": "relation",
  "id": 3359490,
  "tags": {
    "IBGE:GEOCODIGO": "53001080508",
    "admin_level": "8",
    "alt_name": "RA III",
    "boundary": "administrative",
    "flag": "http://upload.wikimedia.org/wikipedia/commons/d/dc/Bandeira_de_Taguatinga_%28DF%29.svg",
    "loc_name": "RA 3",
    "name": "Taguatinga",
    "name:ja": "タグアチンガ",
    "name:pt": "Taguatinga",
    "population": "210498",
    "population:date": "2021",
    "reg_name": "Região Administrativa Três",
    "source:population": "CODEPLAN - PDAD 2021",
    "type": "boundary",
    "website": "https://www.taguatinga.df.gov.br/",
    "wikidata": "Q734609",
    "wikipedia": "pt:Taguatinga (Distrito Federal)"
  }
},
{
  "type": "relation",
  "id": 3359491,
  "tags": {
    "IBGE:GEOCODIGO": "53001080543",
    "admin_level": "8",
    "alt_name": "RA XXIII",
    "boundary": "administrative",
    "loc_name": "RA 23",
    "name": "Varjão",
    "population": "8953",
    "population:date": "2021",
    "reg_name": "Região Administrativa Vinte e Três",
    "source:population": "CODEPLAN - PDAD 2021",
    "type": "boundary",
    "wikidata": "Q4008814",
    "wikipedia": "pt:Varjão (Distrito Federal)"
  }
},
{
  "type": "relation",
  "id": 3359492,
  "tags": {
    "IBGE:GEOCODIGO": "53001080537",
    "admin_level": "8",
    "alt_name": "RA XXX",
    "boundary": "administrative",
    "loc_name": "RA 30",
    "name": "Vicente Pires",
    "population": "78561",
    "population:date": "2021",
    "reg_name": "Região Administrativa Trinta",
    "source:population": "CODEPLAN - PDAD 2021",
    "type": "boundary",
    "wikidata": "Q10390279",
    "wikipedia": "pt:Vicente Pires"
  }
},
{
  "type": "relation",
  "id": 3359493,
  "tags": {
    "IBGE:GEOCODIGO": "53001080536",
    "admin_level": "8",
    "alt_name": "RA XX",
    "boundary": "administrative",
    "loc_name": "RA 20",
    "name": "Águas Claras",
    "population": "120107",
    "population:date": "2021",
    "reg_name": "Região Administrativa Vinte",
    "source:population": "CODEPLAN - PDAD 2021",
    "type": "boundary",
    "wikidata": "Q3576964",
    "wikipedia": "pt:Águas Claras (Distrito Federal)"
  }
},
{
  "type": "relation",
  "id": 12110990,
  "tags": {
    "IBGE:GEOCODIGO": "53001080531",
    "admin_level": "8",
    "alt_name": "RA XXXII",
    "boundary": "administrative",
    "loc_name": "RA 32",
    "name": "Sol Nascente/Pôr do Sol",
    "population": "93217",
    "population:date": "2021",
    "reg_name": "Região Administrativa Trinta e Dois",
    "source:population": "CODEPLAN - PDAD 2021",
    "type": "boundary",
    "wikidata": "Q97182731"
  }
},
{
  "type": "relation",
  "id": 12110991,
  "tags": {
    "IBGE:GEOCODIGO": "53001080532",
    "admin_level": "8",
    "alt_name": "RA XXXIII",
    "boundary": "administrative",
    "loc_name": "RA 33",
    "name": "Arniqueira",
    "population": "47045",
    "population:date": "2021",
    "reg_name": "Região Administrativa Trinta e Três",
    "source:population": "CODEPLAN - PDAD 2021",
    "type": "boundary",
    "wikidata": "Q97181430",
    "wikipedia": "pt:Arniqueira"
  }
}

  ]
}
